STARLINK-31406          
1 59017U 24036V   26068.39466612 -.00002258  00000+0 -64127-4 0  9998
2 59017  53.1595  66.3225 0001213  92.8597 267.2543 15.30195857115463
PHISAT 2                
1 60470U 24149C   26068.78834181  .00008925  00000+0  31421-3 0  9996
2 60470  97.3806 148.6498 0001175 168.6230 191.5037 15.29548631 86792
